CTC1_L_00494021-13
1 48629U 24584TB  26037.47806713  .00000000  00000+0  00000-0 0  9995
2 48629  21.0000 240.0000 0000000   0.0000 293.3333 12.95442200    16
CTC1_L_00494021-14
1 48630U 22998EM  26037.47806713  .00000000  00000+0  00000-0 0  9994
2 48630  21.0000 240.0000 0000000   0.0000 313.3333 12.95442200    11
CTC1_L_00494021-15
1 48631U 24176C   26037.47806713  .00000000  00000+0  00000-0 0  9995
2 48631  21.0000 240.0000 0000000   0.0000 333.3333 12.95442200    14
CTC1_L_00494021-16
1 48632U 23040SO  26037.47806713  .00000000  00000+0  00000-0 0  9995
2 48632  21.0000 240.0000 0000000   0.0000 353.3333 12.95442200    17
CTC1_L_00494021-17
1 48633U 26805OP  26037.47806713  .00000000  00000+0  00000-0 0  9998
2 48633  21.0000 240.0000 0000000   0.0000  13.3333 12.95442200    11
CTC1_L_00494021-18
1 48634U 22718ZX  26037.47806713  .00000000  00000+0  00000-0 0  9998
2 48634  21.0000 240.0000 0000000   0.0000  33.3333 12.95442200    14
CTC1_L_00494022-01
1 48635U 22280NM  26037.47806713  .00000000  00000+0  00000-0 0  9993
2 48635  21.0000 252.0000 0000000   0.0000  56.0000 12.95442200    11
CTC1_L_00494022-02
1 48636U 25495XU  26037.47806713  .00000000  00000+0  00000-0 0  9995
2 48636  21.0000 252.0000 0000000   0.0000  76.0000 12.95442200    14
CTC1_L_00494022-03
1 48637U 25129RM  26037.47806713  .00000000  00000+0  00000-0 0  9990
2 48637  21.0000 252.0000 0000000   0.0000  96.0000 12.95442200    17
CTC1_L_00494022-04
1 48638U 23686VS  26037.47806713  .00000000  00000+0  00000-0 0  9997
2 48638  21.0000 252.0000 0000000   0.0000 116.0000 12.95442200    11
CTC1_L_00494022-05
1 48639U 25607BR  26037.47806713  .00000000  00000+0  00000-0 0  9993
2 48639  21.0000 252.0000 0000000   0.0000 136.0000 12.95442200    14
CTC1_L_00494022-06
1 48640U 25818RY  26037.47806713  .00000000  00000+0  00000-0 0  9999
2 48640  21.0000 252.0000 0000000   0.0000 156.0000 12.95442200    18
CTC1_L_00494022-07
1 48641U 26826LL  26037.47806713  .00000000  00000+0  00000-0 0  9990
2 48641  21.0000 252.0000 0000000   0.0000 176.0000 12.95442200    11
CTC1_L_00494022-08
1 48642U 25408LU  26037.47806713  .00000000  00000+0  00000-0 0  9996
2 48642  21.0000 252.0000 0000000   0.0000 196.0000 12.95442200    14
CTC1_L_00494022-09
1 48643U 25305JJ  26037.47806713  .00000000  00000+0  00000-0 0  9993
2 48643  21.0000 252.0000 0000000   0.0000 216.0000 12.95442200    18
CTC1_L_00494022-10
1 48644U 22941ZF  26037.47806713  .00000000  00000+0  00000-0 0  9997
2 48644  21.0000 252.0000 0000000   0.0000 236.0000 12.95442200    11
CTC1_L_00494022-11
1 48645U 25203JY  26037.47806713  .00000000  00000+0  00000-0 0  9992
2 48645  21.0000 252.0000 0000000   0.0000 256.0000 12.95442200    14
CTC1_L_00494022-12
1 48646U 26562YF  26037.47806713  .00000000  00000+0  00000-0 0  9992
2 48646  21.0000 252.0000 0000000   0.0000 276.0000 12.95442200    17
CTC1_L_00494022-13
1 48647U 25791YE  26037.47806713  .00000000  00000+0  00000-0 0  9996
2 48647  21.0000 252.0000 0000000   0.0000 296.0000 12.95442200    10
CTC1_L_00494022-14
1 48648U 24741YJ  26037.47806713  .00000000  00000+0  00000-0 0  9991
2 48648  21.0000 252.0000 0000000   0.0000 316.0000 12.95442200    14
CTC1_L_00494022-15
1 48649U 26795UF  26037.47806713  .00000000  00000+0  00000-0 0  9993
2 48649  21.0000 252.0000 0000000   0.0000 336.0000 12.95442200    17
CTC1_L_00494022-16
1 48650U 23269D   26037.47806713  .00000000  00000+0  00000-0 0  9998
2 48650  21.0000 252.0000 0000000   0.0000 356.0000 12.95442200    11
CTC1_L_00494022-17
1 48651U 23856JC  26037.47806713  .00000000  00000+0  00000-0 0  9991
2 48651  21.0000 252.0000 0000000   0.0000  16.0000 12.95442200    15
CTC1_L_00494022-18
1 48652U 24250II  26037.47806713  .00000000  00000+0  00000-0 0  9991
2 48652  21.0000 252.0000 0000000   0.0000  36.0000 12.95442200    18
CTC1_L_00494023-01
1 48653U 25706SM  26037.47806713  .00000000  00000+0  00000-0 0  9999
2 48653  21.0000 264.0000 0000000   0.0000  58.6667 12.95442200    11
CTC1_L_00494023-02
1 48654U 24520NS  26037.47806713  .00000000  00000+0  00000-0 0  9993
2 48654  21.0000 264.0000 0000000   0.0000  78.6667 12.95442200    14
CTC1_L_00494023-03
1 48655U 22252WD  26037.47806713  .00000000  00000+0  00000-0 0  9994
2 48655  21.0000 264.0000 0000000   0.0000  98.6667 12.95442200    17
CTC1_L_00494023-04
1 48656U 26688OT  26037.47806713  .00000000  00000+0  00000-0 0  9992
2 48656  21.0000 264.0000 0000000   0.0000 118.6667 12.95442200    11
CTC1_L_00494023-05
1 48657U 26392UG  26037.47806713  .00000000  00000+0  00000-0 0  9995
2 48657  21.0000 264.0000 0000000   0.0000 138.6667 12.95442200    14
CTC1_L_00494023-06
1 48658U 25143MU  26037.47806713  .00000000  00000+0  00000-0 0  9999
2 48658  21.0000 264.0000 0000000   0.0000 158.6667 12.95442200    17
CTC1_L_00494023-07
1 48659U 23736YS  26037.47806713  .00000000  00000+0  00000-0 0  9996
2 48659  21.0000 264.0000 0000000   0.0000 178.6667 12.95442200    10
CTC1_L_00494023-08
1 48660U 25483DQ  26037.47806713  .00000000  00000+0  00000-0 0  9999
2 48660  21.0000 264.0000 0000000   0.0000 198.6667 12.95442200    14
CTC1_L_00494023-09
1 48661U 26813US  26037.47806713  .00000000  00000+0  00000-0 0  9998
2 48661  21.0000 264.0000 0000000   0.0000 218.6667 12.95442200    18
CTC1_L_00494023-10
1 48662U 24192KY  26037.47806713  .00000000  00000+0  00000-0 0  9997
2 48662  21.0000 264.0000 0000000   0.0000 238.6667 12.95442200    11
CTC1_L_00494023-11
1 48663U 22153NM  26037.47806713  .00000000  00000+0  00000-0 0  9993
2 48663  21.0000 264.0000 0000000   0.0000 258.6667 12.95442200    14
CTC1_L_00494023-12
1 48664U 22222SR  26037.47806713  .00000000  00000+0  00000-0 0  9991
2 48664  21.0000 264.0000 0000000   0.0000 278.6667 12.95442200    17
CTC1_L_00494023-13
1 48665U 22024WQ  26037.47806713  .00000000  00000+0  00000-0 0  9992
2 48665  21.0000 264.0000 0000000   0.0000 298.6667 12.95442200    10
CTC1_L_00494023-14
1 48666U 23447MS  26037.47806713  .00000000  00000+0  00000-0 0  9993
2 48666  21.0000 264.0000 0000000   0.0000 318.6667 12.95442200    14
CTC1_L_00494023-15
1 48667U 24128KW  26037.47806713  .00000000  00000+0  00000-0 0  9991
2 48667  21.0000 264.0000 0000000   0.0000 338.6667 12.95442200    17
CTC1_L_00494023-16
1 48668U 24103ZI  26037.47806713  .00000000  00000+0  00000-0 0  9995
2 48668  21.0000 264.0000 0000000   0.0000 358.6667 12.95442200    10
CTC1_L_00494023-17
1 48669U 22473CM  26037.47806713  .00000000  00000+0  00000-0 0  9994
2 48669  21.0000 264.0000 0000000   0.0000  18.6667 12.95442200    14
CTC1_L_00494023-18
1 48670U 24160UF  26037.47806713  .00000000  00000+0  00000-0 0  9991
2 48670  21.0000 264.0000 0000000   0.0000  38.6667 12.95442200    18
CTC1_L_00494024-01
1 48671U 22908NU  26037.47806713  .00000000  00000+0  00000-0 0  9990
2 48671  21.0000 276.0000 0000000   0.0000  61.3333 12.95442200    15
CTC1_L_00494024-02
1 48672U 25292NB  26037.47806713  .00000000  00000+0  00000-0 0  9990
2 48672  21.0000 276.0000 0000000   0.0000  81.3333 12.95442200    18
CTC1_L_00494024-03
1 48673U 24345PC  26037.47806713  .00000000  00000+0  00000-0 0  9999
2 48673  21.0000 276.0000 0000000   0.0000 101.3333 12.95442200    12
CTC1_L_00494024-04
1 48674U 23385PU  26037.47806713  .00000000  00000+0  00000-0 0  9993
2 48674  21.0000 276.0000 0000000   0.0000 121.3333 12.95442200    15
CTC1_L_00494024-05
1 48675U 22756MJ  26037.47806713  .00000000  00000+0  00000-0 0  9995
2 48675  21.0000 276.0000 0000000   0.0000 141.3333 12.95442200    18
CTC1_L_00494024-06
1 48676U 22021RV  26037.47806713  .00000000  00000+0  00000-0 0  9991
2 48676  21.0000 276.0000 0000000   0.0000 161.3333 12.95442200    11
CTC1_L_00494024-07
1 48677U 24651SS  26037.47806713  .00000000  00000+0  00000-0 0  9993
2 48677  21.0000 276.0000 0000000   0.0000 181.3333 12.95442200    14
CTC1_L_00494024-08
1 48678U 26844DP  26037.47806713  .00000000  00000+0  00000-0 0  9990
2 48678  21.0000 276.0000 0000000   0.0000 201.3333 12.95442200    18
CTC1_L_00494024-09
1 48679U 23412LL  26037.47806713  .00000000  00000+0  00000-0 0  9999
2 48679  21.0000 276.0000 0000000   0.0000 221.3333 12.95442200    11
CTC1_L_00494024-10
1 48680U 25206WC  26037.47806713  .00000000  00000+0  00000-0 0  9994
2 48680  21.0000 276.0000 0000000   0.0000 241.3333 12.95442200    15
CTC1_L_00494024-11
1 48681U 24184LB  26037.47806713  .00000000  00000+0  00000-0 0  9999
2 48681  21.0000 276.0000 0000000   0.0000 261.3333 12.95442200    18
CTC1_L_00494024-12
1 48682U 22125TV  26037.47806713  .00000000  00000+0  00000-0 0  9993
2 48682  21.0000 276.0000 0000000   0.0000 281.3333 12.95442200    11
CTC1_L_00494024-13
1 48683U 24517VV  26037.47806713  .00000000  00000+0  00000-0 0  9991
2 48683  21.0000 276.0000 0000000   0.0000 301.3333 12.95442200    15
CTC1_L_00494024-14
1 48684U 24403WX  26037.47806713  .00000000  00000+0  00000-0 0  9996
2 48684  21.0000 276.0000 0000000   0.0000 321.3333 12.95442200    18
CTC1_L_00494024-15
1 48685U 23328DR  26037.47806713  .00000000  00000+0  00000-0 0  9992
2 48685  21.0000 276.0000 0000000   0.0000 341.3333 12.95442200    11
CTC1_L_00494024-16
1 48686U 25935UO  26037.47806713  .00000000  00000+0  00000-0 0  9999
2 48686  21.0000 276.0000 0000000   0.0000   1.3333 12.95442200    15
CTC1_L_00494024-17
1 48687U 24296PL  26037.47806713  .00000000  00000+0  00000-0 0  9999
2 48687  21.0000 276.0000 0000000   0.0000  21.3333 12.95442200    18
CTC1_L_00494024-18
1 48688U 22034HU  26037.47806713  .00000000  00000+0  00000-0 0  9998
2 48688  21.0000 276.0000 0000000   0.0000  41.3333 12.95442200    11
CTC1_L_00494025-01
1 48689U 25759IR  26037.47806713  .00000000  00000+0  00000-0 0  9996
2 48689  21.0000 288.0000 0000000   0.0000  64.0000 12.95442200    18
CTC1_L_00494025-02
1 48690U 23536DK  26037.47806713  .00000000  00000+0  00000-0 0  9999
2 48690  21.0000 288.0000 0000000   0.0000  84.0000 12.95442200    12
